QIANFAN-65              
1 62795U 25016L   25286.29387859  .00000071  00000+0  90706-4 0  9990
2 62795  88.9723 109.3140 0014617 151.7459 208.4488 13.50971781 39083
QIANFAN-66              
1 62796U 25016M   25284.76742828  .00000126  00000+0  17597-3 0  9999
2 62796  88.9747 109.4302 0015725 152.1511 208.0485 13.50966984 38920
QIANFAN-67              
1 62797U 25016N   25286.32677198  .00000073  00000+0  94059-4 0  9991
2 62797  88.9738 109.3004 0015636 154.4492 205.7435 13.50968531 39103
QIANFAN-68              
1 62798U 25016P   25286.31857313  .00000075  00000+0  97282-4 0  9993
2 62798  88.9739 109.3442 0015729 152.8138 207.3840 13.50970859 39084
QIANFAN-69              
1 62799U 25016Q   25286.26099646  .00000053  00000+0  63215-4 0  9990
2 62799  88.9715 109.2326 0016460 154.2581 205.9393 13.50968366 39111
QIANFAN-70              
1 62800U 25016R   25286.27732212 -.00000050  00000+0 -96564-4 0  9999
2 62800  88.9747 109.3566 0016252 145.1699 215.0519 13.50972974 39071
QIANFAN-71              
1 62801U 25016S   25286.27330545  .00000067  00000+0  84381-4 0  9993
2 62801  88.9730 109.3402 0016270 157.5712 202.6154 13.50972066 39075
QIANFAN-72              
1 62802U 25016T   25274.29087208  .00000084  00000+0  11481-3 0  9997
2 62802  88.9730 110.6012 0018440 200.3911 159.6505 13.49486897 37447
